# TLEs retrieved from www.space-track.org
# Copy from https://www.space-track.org/basicspacedata/query/class/tle_latest/NORAD_CAT_ID/58928U,25544U,25994U,27424U,28376U,29107U,29108U,37849U,42063U,40697U,43613U,59908U,59881U/EPOCH/%3Enow-10/ORDINAL/1/orderby/EPOCH%20desc/limit/14/format/3le/metadata/false
# Auto-updated from celestrak on: 2026-09-24
0 PREFIRE-2
1 59881U 24099A   26266.59138977  .00002491  00000+0  11326-3 0  9997
2 59881  97.3960 121.1412 0010794 215.3976 144.6545 15.21616431129093
0 PREFIRE-1               
1 59965U 24108A   26266.87891061  .00004005  00000+0  16595-3 0  9998
2 59965  97.5427  62.1878 0009631 252.8121 107.2062 15.24460547127626
#0 CLOUDSAT
#1 29107U 06016A   25274.52185104  .00003961  00000+0  46471-3 0  9991
#2 29107  98.4215 292.1971 0006752  89.3716 270.8271 14.85567608 36090
0 AQUA
1 27424U 02022A   26267.21079088  .00000529  00000+0  11497-3 0  9993
2 27424  98.4408 238.5341 0001372  63.7937 351.9107 14.62211334297740
0 SENTINEL 2B
1 42063U 17013A   26267.29841228 -.00000154  00000+0 -42170-4 0  9995
2 42063  98.5711 340.6469 0001153  88.7080 271.4235 14.30815352498817
0 NPP
1 37849U 11061A   26267.30237600  .00000055  00000+0  47257-4 0  9992
2 37849  98.8018 207.5245 0002662  57.7088 302.4345 14.19534834772507
0 TERRA
1 25994U 99068A   26267.31555648  .00000223  00000+0  54257-4 0  9994
2 25994  97.9355 312.8826 0000876 284.6919 140.7871 14.61164639424086
0 SENTINEL 2A
1 40697U 15028A   26267.30557198 -.00000112  00000+0 -26174-4 0  9992
2 40697  98.5666 340.7135 0001103  84.8540 275.2769 14.30816884587905
0 ISS (ZARYA)
1 25544U 98067A   26267.14191496  .00009634  00000+0  18116-3 0  9999
2 25544  51.6318 170.3464 0004691 174.6338 185.4701 15.49258637587098
0 CALIPSO
1 29108U 06016B   26267.30582963  .00000612  00000+0  11210-3 0  9998
2 29108  98.4461 286.3555 0001127  70.9837 289.1489 14.69498820 87617
0 ICESAT-2
1 43613U 18070A   26267.15937048  .00006940  00000+0  25169-3 0  9997
2 43613  92.0020 317.7048 0006046  94.7890 265.4050 15.28302680447579
0 EARTHCARE
1 59908U 24101A   26266.06236071  .00008364  00000+0  11660-3 0  9993
2 59908  97.0008  31.4836 0001755  99.7954 260.3501 15.57155335131791
0 AURA
1 28376U 04026A   26267.26524616  .00000522  00000+0  11520-3 0  9993
2 28376  98.3532 224.5981 0001341  67.2378 292.8964 14.61450268180681
0 PACE
1 58928U 24025A   26267.26017642  .00000271  00000+0  58705-4 0  9994
2 58928  98.0970 197.1171 0001283 348.2314  11.8859 14.65611537140447
0 CRYOSAT-2
1 36508U 10013A   26267.25756045  .00000176  00000+0  43029-4 0  9999
2 36508  92.0264 301.3521 0002244  86.4942 273.6522 14.51902829872451
0 NOAA 20 (JPSS-1)        
1 43013U 17073A   26267.24559523  .00000031  00000+0  35684-4 0  9990
2 43013  98.7830 205.8481 0001195  38.7721 321.3540 14.19527363458523
0 NOAA 21 (JPSS-2)        
1 54234U 22150A   26267.27677278  .00000022  00000+0  30971-4 0  9994
2 54234  98.7112 204.4164 0000687 287.8230  72.2871 14.19550448200606
0 METOP-B                 
1 38771U 12049A   26267.29939237  .00000060  00000+0  47132-4 0  9995
2 38771  98.6401 316.7715 0003293  72.0525 288.1011 14.21460688727348
0 METOP-C                 
1 43689U 18087A   26267.24417149  .00000057  00000+0  46239-4 0  9998
2 43689  98.7328 325.1009 0000490  62.4622 297.6605 14.21474226408903
0 ARCTIC WEATHER SATELLITE
1 60543U 24149CD  26267.15421094  .00000278  00000+0  34516-4 0  9996
2 60543  97.6712 334.7416 0003298 123.8666 236.2866 14.89793850114030
0 METOP-SGA1              
1 65159U 25172A   26267.13758440  .00000016  00000+0  27623-4 0  9998
2 65159  98.7443 325.0754 0000690  86.5474 273.5783 14.21466243 57840
